{
  "type": "FeatureCollection",
  "features": [
    {
      "type": "Feature",
      "properties": {
        "norad_id": 66569,
        "name": "STARLINK-35835",
        "group": "last-30-days",
        "lat": 42.93106807824929,
        "lon": -125.51803140306572,
        "alt_km": 410.186637442288,
        "timestamp": "2025-12-09T07:41:31.972929+00:00",
        "meta_object_name": "STARLINK-35835",
        "meta_object_id": "2025-268N",
        "meta_epoch": "2025-12-08T22:00:03.000096",
        "meta_mean_motion": 15.51671911,
        "meta_eccentricity": 0.00017073,
        "meta_inclination": 43.0002,
        "meta_ra_of_asc_node": 143.502,
        "meta_arg_of_pericenter": 258.0148,
        "meta_mean_anomaly": 97.0453,
        "meta_ephemeris_type": 0,
        "meta_classification_type": "U",
        "meta_norad_cat_id": 66569,
        "meta_element_set_no": 999,
        "meta_rev_at_epoch": 405,
        "meta_bstar": -0.028180235,
        "meta_mean_motion_dot": -0.01552134,
        "meta_mean_motion_ddot": 0,
        "tle_line1": "1 66569U 25268N   25342.91670139 -.01552134  00000+0 -28180-1 0  9999",
        "tle_line2": "2 66569  43.0002 143.5020 0001707 258.0148  97.0453 15.51671911  4055"
      },
      "geometry": {
        "type": "Point",
        "coordinates": [
          -125.51803140306572,
          42.93106807824929
        ]
      }
    },
    {
      "type": "Feature",
      "properties": {
        "norad_id": 66570,
        "name": "STARLINK-35834",
        "group": "last-30-days",
        "lat": 42.82515845827382,
        "lon": -122.90460159357299,
        "alt_km": 410.1028884570178,
        "timestamp": "2025-12-09T07:41:31.972939+00:00",
        "meta_object_name": "STARLINK-35834",
        "meta_object_id": "2025-268P",
        "meta_epoch": "2025-12-08T22:00:03.000096",
        "meta_mean_motion": 15.51667201,
        "meta_eccentricity": 0.00015031,
        "meta_inclination": 43.0006,
        "meta_ra_of_asc_node": 143.4965,
        "meta_arg_of_pericenter": 268.0881,
        "meta_mean_anomaly": 88.8937,
        "meta_ephemeris_type": 0,
        "meta_classification_type": "U",
        "meta_norad_cat_id": 66570,
        "meta_element_set_no": 999,
        "meta_rev_at_epoch": 405,
        "meta_bstar": -0.028159817,
        "meta_mean_motion_dot": -0.01550789,
        "meta_mean_motion_ddot": 0,
        "tle_line1": "1 66570U 25268P   25342.91670139 -.01550789  00000+0 -28160-1 0  9993",
        "tle_line2": "2 66570  43.0006 143.4965 0001503 268.0881  88.8937 15.51667201  4059"
      },
      "geometry": {
        "type": "Point",
        "coordinates": [
          -122.90460159357299,
          42.82515845827382
        ]
      }
    },
    {
      "type": "Feature",
      "properties": {
        "norad_id": 66571,
        "name": "STARLINK-35836",
        "group": "last-30-days",
        "lat": 42.65966069712971,
        "lon": -120.30709944375442,
        "alt_km": 410.20157250001375,
        "timestamp": "2025-12-09T07:41:31.972949+00:00",
        "meta_object_name": "STARLINK-35836",
        "meta_object_id": "2025-268Q",
        "meta_epoch": "2025-12-08T22:00:03.000096",
        "meta_mean_motion": 15.51667927,
        "meta_eccentricity": 0.00016502,
        "meta_inclination": 43.0004,
        "meta_ra_of_asc_node": 143.4926,
        "meta_arg_of_pericenter": 269.4204,
        "meta_mean_anomaly": 89.4693,
        "meta_ephemeris_type": 0,
        "meta_classification_type": "U",
        "meta_norad_cat_id": 66571,
        "meta_element_set_no": 999,
        "meta_rev_at_epoch": 405,
        "meta_bstar": -0.027979159,
        "meta_mean_motion_dot": -0.01541887,
        "meta_mean_motion_ddot": 0,
        "tle_line1": "1 66571U 25268Q   25342.91670139 -.01541887  00000+0 -27979-1 0  9990",
        "tle_line2": "2 66571  43.0004 143.4926 0001650 269.4204  89.4693 15.51667927  4053"
      },
      "geometry": {
        "type": "Point",
        "coordinates": [
          -120.30709944375442,
          42.65966069712971
        ]
      }
    },
    {
      "type": "Feature",
      "properties": {
        "norad_id": 66572,
        "name": "STARLINK-35870",
        "group": "last-30-days",
        "lat": 42.43562890795791,
        "lon": -117.7228826757206,
        "alt_km": 410.2568648230181,
        "timestamp": "2025-12-09T07:41:31.972959+00:00",
        "meta_object_name": "STARLINK-35870",
        "meta_object_id": "2025-268R",
        "meta_epoch": "2025-12-08T22:00:03.000096",
        "meta_mean_motion": 15.51671614,
        "meta_eccentricity": 0.00016623,
        "meta_inclination": 43.0005,
        "meta_ra_of_asc_node": 143.4883,
        "meta_arg_of_pericenter": 266.3354,
        "meta_mean_anomaly": 94.4778,
        "meta_ephemeris_type": 0,
        "meta_classification_type": "U",
        "meta_norad_cat_id": 66572,
        "meta_element_set_no": 999,
        "meta_rev_at_epoch": 405,
        "meta_bstar": -0.028247505,
        "meta_mean_motion_dot": -0.01555448,
        "meta_mean_motion_ddot": 0,
        "tle_line1": "1 66572U 25268R   25342.91670139 -.01555448  00000+0 -28248-1 0  9999",
        "tle_line2": "2 66572  43.0005 143.4883 0001662 266.3354  94.4778 15.51671614  4050"
      },
      "geometry": {
        "type": "Point",
        "coordinates": [
          -117.7228826757206,
          42.43562890795791
        ]
      }
    },
    {
      "type": "Feature",
      "properties": {
        "norad_id": 66573,
        "name": "STARLINK-35650",
        "group": "last-30-days",
        "lat": 42.15386952855669,
        "lon": -115.16146146126026,
        "alt_km": 410.30309310615576,
        "timestamp": "2025-12-09T07:41:31.972969+00:00",
        "meta_object_name": "STARLINK-35650",
        "meta_object_id": "2025-268S",
        "meta_epoch": "2025-12-08T22:00:03.000096",
        "meta_mean_motion": 15.51667011,
        "meta_eccentricity": 0.00016531,
        "meta_inclination": 43.0006,
        "meta_ra_of_asc_node": 143.4825,
        "meta_arg_of_pericenter": 269.4871,
        "meta_mean_anomaly": 93.2469,
        "meta_ephemeris_type": 0,
        "meta_classification_type": "U",
        "meta_norad_cat_id": 66573,
        "meta_element_set_no": 999,
        "meta_rev_at_epoch": 405,
        "meta_bstar": -0.028184772,
        "meta_mean_motion_dot": -0.01552087,
        "meta_mean_motion_ddot": 0,
        "tle_line1": "1 66573U 25268S   25342.91670139 -.01552087  00000+0 -28185-1 0  9996",
        "tle_line2": "2 66573  43.0006 143.4825 0001653 269.4871  93.2469 15.51667011  4056"
      },
      "geometry": {
        "type": "Point",
        "coordinates": [
          -115.16146146126026,
          42.15386952855669
        ]
      }
    },
    {
      "type": "Feature",
      "properties": {
        "norad_id": 66574,
        "name": "STARLINK-35812",
        "group": "last-30-days",
        "lat": 41.81742881877458,
        "lon": -112.63808400003684,
        "alt_km": 410.174898732741,
        "timestamp": "2025-12-09T07:41:31.972979+00:00",
        "meta_object_name": "STARLINK-35812",
        "meta_object_id": "2025-268T",
        "meta_epoch": "2025-12-08T22:00:03.000096",
        "meta_mean_motion": 15.51563779,
        "meta_eccentricity": 0.00019443,
        "meta_inclination": 43.0007,
        "meta_ra_of_asc_node": 143.4776,
        "meta_arg_of_pericenter": 264.9234,
        "meta_mean_anomaly": 99.7111,
        "meta_ephemeris_type": 0,
        "meta_classification_type": "U",
        "meta_norad_cat_id": 66574,
        "meta_element_set_no": 999,
        "meta_rev_at_epoch": 405,
        "meta_bstar": -0.023676539,
        "meta_mean_motion_dot": -0.01300991,
        "meta_mean_motion_ddot": 0,
        "tle_line1": "1 66574U 25268T   25342.91670139 -.01300991  00000+0 -23677-1 0  9993",
        "tle_line2": "2 66574  43.0007 143.4776 0001944 264.9234  99.7111 15.51563779  4050"
      },
      "geometry": {
        "type": "Point",
        "coordinates": [
          -112.63808400003684,
          41.81742881877458
        ]
      }
    },
    {
      "type": "Feature",
      "properties": {
        "norad_id": 66575,
        "name": "STARLINK-35810",
        "group": "last-30-days",
        "lat": 41.423573202391346,
        "lon": -110.1284686887767,
        "alt_km": 410.20422539110587,
        "timestamp": "2025-12-09T07:41:31.972991+00:00",
        "meta_object_name": "STARLINK-35810",
        "meta_object_id": "2025-268U",
        "meta_epoch": "2025-12-08T22:00:03.000096",
        "meta_mean_motion": 15.51568169,
        "meta_eccentricity": 0.00018807,
        "meta_inclination": 43.0007,
        "meta_ra_of_asc_node": 143.4727,
        "meta_arg_of_pericenter": 267.512,
        "meta_mean_anomaly": 99.0382,
        "meta_ephemeris_type": 0,
        "meta_classification_type": "U",
        "meta_norad_cat_id": 66575,
        "meta_element_set_no": 999,
        "meta_rev_at_epoch": 405,
        "meta_bstar": -0.023809935,
        "meta_mean_motion_dot": -0.0130779,
        "meta_mean_motion_ddot": 0,
        "tle_line1": "1 66575U 25268U   25342.91670139 -.01307790  00000+0 -23810-1 0  9997",
        "tle_line2": "2 66575  43.0007 143.4727 0001880 267.5120  99.0382 15.51568169  4050"
      },
      "geometry": {
        "type": "Point",
        "coordinates": [
          -110.1284686887767,
          41.423573202391346
        ]
      }
    }
  ]
}